start=new Date('2022-05-22T00:00:00.000Z').valueOf();
sats=[{"OBJECT_TYPE":"PAYLOAD","TLE_LINE2":"2 52458  53.2153 189.5511 0001703  27.6866  49.8432 15.73186494  1303","EPOCH":"2022-05-21T22:00:00.999936","RA_OF_ASC_NODE":"189.5511","COUNTRY_CODE":"US","INCLINATION":"53.2153","REV_AT_EPOCH":"130","DECAY_DATE":null,"PERIAPSIS":"348.653","MEAN_MOTION_DDOT":"0.0000000000000","ELEMENT_SET_NO":"999","MEAN_ANOMALY":"49.8432","SITE":"AFETR","CENTER_NAME":"EARTH","MEAN_MOTION_DOT":"0.00022540","MEAN_ELEMENT_THEORY":"SGP4","TIME_SYSTEM":"UTC","NORAD_CAT_ID":"52458","OBJECT_ID":"2022-049H","PERIOD":"91.534","CLASSIFICATION_TYPE":"U","REF_FRAME":"TEME","SEMIMAJOR_AXIS":"6727.934","ECCENTRICITY":"0.00017030","GP_ID":"204196085","LAUNCH_DATE":"2022-05-06","APOAPSIS":"350.944","FILE":"3457577","MEAN_MOTION":"15.73186494","TLE_LINE1":"1 52458U 22049H   22141.91667824  .00022540  00000-0  16468-3 0  9995","RCS_SIZE":"LARGE","OBJECT_NAME":"STARLINK-3898","BSTAR":"0.00016468000000","EPHEMERIS_TYPE":"0","ARG_OF_PERICENTER":"27.6866"},{"ARG_OF_PERICENTER":"23.3018","EPHEMERIS_TYPE":"0","BSTAR":"0.00019345000000","OBJECT_NAME":"STARLINK-3856","RCS_SIZE":"MEDIUM","TLE_LINE1":"1 52459U 22049J   22141.91667824  .00026625  00000-0  19345-3 0  9991","MEAN_MOTION":"15.73208258","FILE":"3457577","APOAPSIS":"351.029","LAUNCH_DATE":"2022-05-06","GP_ID":"204195661","ECCENTRICITY":"0.00019210","SEMIMAJOR_AXIS":"6727.872","REF_FRAME":"TEME","CLASSIFICATION_TYPE":"U","PERIOD":"91.533","NORAD_CAT_ID":"52459","TIME_SYSTEM":"UTC","OBJECT_ID":"2022-049J","MEAN_ELEMENT_THEORY":"SGP4","MEAN_MOTION_DOT":"0.00026625","CENTER_NAME":"EARTH","SITE":"AFETR","MEAN_ANOMALY":"55.4175","ELEMENT_SET_NO":"999","MEAN_MOTION_DDOT":"0.0000000000000","PERIAPSIS":"348.444","DECAY_DATE":null,"REV_AT_EPOCH":"130","INCLINATION":"53.2154","COUNTRY_CODE":"US","RA_OF_ASC_NODE":"189.5492","EPOCH":"2022-05-21T22:00:00.999936","TLE_LINE2":"2 52459  53.2154 189.5492 0001921  23.3018  55.4175 15.73208258  1307","OBJECT_TYPE":"PAYLOAD"},{"GP_ID":"204196202","SEMIMAJOR_AXIS":"6727.895","REF_FRAME":"TEME","ECCENTRICITY":"0.00019520","NORAD_CAT_ID":"52460","OBJECT_ID":"2022-049K","TIME_SYSTEM":"UTC","CLASSIFICATION_TYPE":"U","PERIOD":"91.533","EPHEMERIS_TYPE":"0","BSTAR":"0.00021000000000","ARG_OF_PERICENTER":"29.1776","TLE_LINE1":"1 52460U 22049K   22141.91667824  .00028954  00000-0  21000-3 0  9991","RCS_SIZE":"LARGE","OBJECT_NAME":"STARLINK-3865","LAUNCH_DATE":"2022-05-06","FILE":"3457577","MEAN_MOTION":"15.73199956","APOAPSIS":"351.074","MEAN_MOTION_DDOT":"0.0000000000000","PERIAPSIS":"348.447","INCLINATION":"53.2148","COUNTRY_CODE":"US","DECAY_DATE":null,"REV_AT_EPOCH":"130","TLE_LINE2":"2 52460  53.2148 189.5459 0001952  29.1776  50.8308 15.73199956  1305","RA_OF_ASC_NODE":"189.5459","EPOCH":"2022-05-21T22:00:00.999936","OBJECT_TYPE":"PAYLOAD","MEAN_ELEMENT_THEORY":"SGP4","CENTER_NAME":"EARTH","MEAN_MOTION_DOT":"0.00028954","MEAN_ANOMALY":"50.8308","SITE":"AFETR","ELEMENT_SET_NO":"999"},{"MEAN_ANOMALY":"49.8619","SITE":"AFETR","ELEMENT_SET_NO":"999","MEAN_ELEMENT_THEORY":"SGP4","CENTER_NAME":"EARTH","MEAN_MOTION_DOT":"0.00018638","TLE_LINE2":"2 52461  53.2154 189.5506 0002071  28.2198  49.8619 15.73212125  1304","EPOCH":"2022-05-21T22:00:00.999936","RA_OF_ASC_NODE":"189.5506","OBJECT_TYPE":"PAYLOAD","PERIAPSIS":"348.332","MEAN_MOTION_DDOT":"0.0000000000000","COUNTRY_CODE":"US","INCLINATION":"53.2154","REV_AT_EPOCH":"130","DECAY_DATE":null,"TLE_LINE1":"1 52461U 22049L   22141.91667824  .00018638  00000-0  13685-3 0  9990","RCS_SIZE":"LARGE","OBJECT_NAME":"STARLINK-3900","LAUNCH_DATE":"2022-05-06","APOAPSIS":"351.119","MEAN_MOTION":"15.73212125","FILE":"3457577","BSTAR":"0.00013685000000","EPHEMERIS_TYPE":"0","ARG_OF_PERICENTER":"28.2198","OBJECT_ID":"2022-049L","NORAD_CAT_ID":"52461","TIME_SYSTEM":"UTC","PERIOD":"91.532","CLASSIFICATION_TYPE":"U","GP_ID":"204195559","REF_FRAME":"TEME","SEMIMAJOR_AXIS":"6727.861","ECCENTRICITY":"0.00020710"},{"PERIAPSIS":"348.545","MEAN_MOTION_DDOT":"0.0000000000000","COUNTRY_CODE":"US","INCLINATION":"53.2152","REV_AT_EPOCH":"130","DECAY_DATE":null,"TLE_LINE2":"2 52462  53.2152 189.5423 0001874  30.5048  51.4060 15.73184099  1308","EPOCH":"2022-05-21T22:00:00.999936","RA_OF_ASC_NODE":"189.5423","OBJECT_TYPE":"PAYLOAD","MEAN_ELEMENT_THEORY":"SGP4","CENTER_NAME":"EARTH","MEAN_MOTION_DOT":"0.00045071","MEAN_ANOMALY":"51.4060","SITE":"AFETR","ELEMENT_SET_NO":"999","GP_ID":"204195764","REF_FRAME":"TEME","SEMIMAJOR_AXIS":"6727.941","ECCENTRICITY":"0.00018740","NORAD_CAT_ID":"52462","OBJECT_ID":"2022-049M","TIME_SYSTEM":"UTC","PERIOD":"91.534","CLASSIFICATION_TYPE":"U","BSTAR":"0.00032404000000","EPHEMERIS_TYPE":"0","ARG_OF_PERICENTER":"30.5048","TLE_LINE1":"1 52462U 22049M   22141.91667824  .00045071  00000-0  32404-3 0  9992","RCS_SIZE":"LARGE","OBJECT_NAME":"STARLINK-3903","LAUNCH_DATE":"2022-05-06","APOAPSIS":"351.066","MEAN_MOTION":"15.73184099","FILE":"3457577"},{"CENTER_NAME":"EARTH","MEAN_MOTION_DOT":"-0.00020208","MEAN_ELEMENT_THEORY":"SGP4","ELEMENT_SET_NO":"999","MEAN_ANOMALY":"45.1200","SITE":"AFETR","INCLINATION":"53.2154","COUNTRY_CODE":"US","DECAY_DATE":null,"REV_AT_EPOCH":"130","MEAN_MOTION_DDOT":"0.0000000000000","PERIAPSIS":"348.402","OBJECT_TYPE":"PAYLOAD","TLE_LINE2":"2 52463  53.2154 189.5481 0001905  34.1465  45.1200 15.73226707  1302","RA_OF_ASC_NODE":"189.5481","EPOCH":"2022-05-21T22:00:00.999936","EPHEMERIS_TYPE":"0","BSTAR":"-0.00013973000000","ARG_OF_PERICENTER":"34.1465","LAUNCH_DATE":"2022-05-06","FILE":"3457577","MEAN_MOTION":"15.73226707","APOAPSIS":"350.966","TLE_LINE1":"1 52463U 22049N   22141.91667824 -.00020208  00000-0 -13973-3 0  9990","RCS_SIZE":"LARGE","OBJECT_NAME":"STARLINK-3885","SEMIMAJOR_AXIS":"6727.819","REF_FRAME":"TEME","ECCENTRICITY":"0.00019050","GP_ID":"204195983","OBJECT_ID":"2022-049N","NORAD_CAT_ID":"52463","TIME_SYSTEM":"UTC","PERIOD":"91.532","CLASSIFICATION_TYPE":"U"},{"ARG_OF_PERICENTER":"31.3748","EPHEMERIS_TYPE":"0","BSTAR":"0.00042561000000","FILE":"3457577","MEAN_MOTION":"15.73188564","APOAPSIS":"351.124","LAUNCH_DATE":"2022-05-06","OBJECT_NAME":"STARLINK-3904","RCS_SIZE":"LARGE","TLE_LINE1":"1 52464U 22049P   22141.91667824  .00059508  00000-0  42561-3 0  9999","ECCENTRICITY":"0.00019790","SEMIMAJOR_AXIS":"6727.928","REF_FRAME":"TEME","GP_ID":"204196262","PERIOD":"91.534","CLASSIFICATION_TYPE":"U","NORAD_CAT_ID":"52464","TIME_SYSTEM":"UTC","OBJECT_ID":"2022-049P","MEAN_MOTION_DOT":"0.00059508","CENTER_NAME":"EARTH","MEAN_ELEMENT_THEORY":"SGP4","ELEMENT_SET_NO":"999","SITE":"AFETR","MEAN_ANOMALY":"49.8574","DECAY_DATE":null,"REV_AT_EPOCH":"130","INCLINATION":"53.2154","COUNTRY_CODE":"US","MEAN_MOTION_DDOT":"0.0000000000000","PERIAPSIS":"348.461","OBJECT_TYPE":"PAYLOAD","RA_OF_ASC_NODE":"189.5436","EPOCH":"2022-05-21T22:00:00.999936","TLE_LINE2":"2 52464  53.2154 189.5436 0001979  31.3748  49.8574 15.73188564  1300"},{"INCLINATION":"53.2151","COUNTRY_CODE":"US","DECAY_DATE":null,"REV_AT_EPOCH":"130","MEAN_MOTION_DDOT":"0.0000000000000","PERIAPSIS":"348.592","OBJECT_TYPE":"PAYLOAD","TLE_LINE2":"2 52465  53.2151 189.5457 0001737  28.0164  52.4797 15.73199957  1303","RA_OF_ASC_NODE":"189.5457","EPOCH":"2022-05-21T22:00:00.999936","CENTER_NAME":"EARTH","MEAN_MOTION_DOT":"0.00076100","MEAN_ELEMENT_THEORY":"SGP4","ELEMENT_SET_NO":"999","MEAN_ANOMALY":"52.4797","SITE":"AFETR","SEMIMAJOR_AXIS":"6727.895","REF_FRAME":"TEME","ECCENTRICITY":"0.00017370","GP_ID":"204195881","OBJECT_ID":"2022-049Q","NORAD_CAT_ID":"52465","TIME_SYSTEM":"UTC","PERIOD":"91.533","CLASSIFICATION_TYPE":"U","EPHEMERIS_TYPE":"0","BSTAR":"0.00054172000000","ARG_OF_PERICENTER":"28.0164","LAUNCH_DATE":"2022-05-06","FILE":"3457577","MEAN_MOTION":"15.73199957","APOAPSIS":"350.929","TLE_LINE1":"1 52465U 22049Q   22141.91667824  .00076100  00000-0  54172-3 0  9998","RCS_SIZE":"LARGE","OBJECT_NAME":"STARLINK-3863"},{"OBJECT_ID":"2022-049R","NORAD_CAT_ID":"52466","TIME_SYSTEM":"UTC","PERIOD":"91.533","CLASSIFICATION_TYPE":"U","GP_ID":"204196086","REF_FRAME":"TEME","SEMIMAJOR_AXIS":"6727.892","ECCENTRICITY":"0.00020120","TLE_LINE1":"1 52466U 22049R   22141.91667824  .00028496  00000-0  20675-3 0  9995","OBJECT_NAME":"STARLINK-3840","RCS_SIZE":"LARGE","LAUNCH_DATE":"2022-05-06","APOAPSIS":"351.110","FILE":"3457577","MEAN_MOTION":"15.73201223","BSTAR":"0.00020675000000","EPHEMERIS_TYPE":"0","ARG_OF_PERICENTER":"20.5537","TLE_LINE2":"2 52466  53.2149 189.5397 0002012  20.5537  62.5201 15.73201223  1304","EPOCH":"2022-05-21T22:00:00.999936","RA_OF_ASC_NODE":"189.5397","OBJECT_TYPE":"PAYLOAD","PERIAPSIS":"348.403","MEAN_MOTION_DDOT":"0.0000000000000","COUNTRY_CODE":"US","INCLINATION":"53.2149","REV_AT_EPOCH":"130","DECAY_DATE":null,"MEAN_ANOMALY":"62.5201","SITE":"AFETR","ELEMENT_SET_NO":"999","MEAN_ELEMENT_THEORY":"SGP4","CENTER_NAME":"EARTH","MEAN_MOTION_DOT":"0.00028496"},{"GP_ID":"204195662","SEMIMAJOR_AXIS":"6727.859","REF_FRAME":"TEME","ECCENTRICITY":"0.00021150","OBJECT_ID":"2022-049S","NORAD_CAT_ID":"52467","TIME_SYSTEM":"UTC","CLASSIFICATION_TYPE":"U","PERIOD":"91.532","EPHEMERIS_TYPE":"0","BSTAR":"-0.00003429000000","ARG_OF_PERICENTER":"35.1252","TLE_LINE1":"1 52467U 22049S   22141.91667824 -.00005434  00000-0 -34290-4 0  9994","OBJECT_NAME":"STARLINK-3873","RCS_SIZE":"LARGE","LAUNCH_DATE":"2022-05-06","MEAN_MOTION":"15.73212744","FILE":"3457577","APOAPSIS":"351.147","MEAN_MOTION_DDOT":"0.0000000000000","PERIAPSIS":"348.301","INCLINATION":"53.2153","COUNTRY_CODE":"US","DECAY_DATE":null,"REV_AT_EPOCH":"130","TLE_LINE2":"2 52467  53.2153 189.5412 0002115  35.1252  47.3765 15.73212744  1304","RA_OF_ASC_NODE":"189.5412","EPOCH":"2022-05-21T22:00:00.999936","OBJECT_TYPE":"PAYLOAD","MEAN_ELEMENT_THEORY":"SGP4","CENTER_NAME":"EARTH","MEAN_MOTION_DOT":"-0.00005434","MEAN_ANOMALY":"47.3765","SITE":"AFETR","ELEMENT_SET_NO":"999"}];
